[{"OBJECT_NAME":"STARLINK-35557","OBJECT_ID":"2025-245D","EPOCH":"2026-03-09T21:07:55.885152","MEAN_MOTION":15.30205177,"ECCENTRICITY":9.795e-5,"INCLINATION":53.1571,"RA_OF_ASC_NODE":283.1634,"ARG_OF_PERICENTER":78.2594,"MEAN_ANOMALY":281.8517,"EPHEMERIS_TYPE":0,"CLASSIFICATION_TYPE":"U","NORAD_CAT_ID":66237,"ELEMENT_SET_NO":999,"REV_AT_EPOCH":2128,"BSTAR":0.00081218761,"MEAN_MOTION_DOT":0.00023776,"MEAN_MOTION_DDOT":0},{"OBJECT_NAME":"POEM","OBJECT_ID":"2022-072E","EPOCH":"2026-03-08T08:06:01.299456","MEAN_MOTION":15.22764653,"ECCENTRICITY":0.00236837,"INCLINATION":9.9515,"RA_OF_ASC_NODE":116.6548,"ARG_OF_PERICENTER":142.2805,"MEAN_ANOMALY":217.9074,"EPHEMERIS_TYPE":0,"CLASSIFICATION_TYPE":"U","NORAD_CAT_ID":52939,"ELEMENT_SET_NO":999,"REV_AT_EPOCH":20410,"BSTAR":0.00045784559,"MEAN_MOTION_DOT":0.00012084,"MEAN_MOTION_DDOT":0}]
